GLOBALSTAR M023         
1 25621U 99004A   24360.99465726  .00000023  00000+0  70706-3 0  9998
2 25621  52.0085 220.8160 0010964 102.4745  46.0688 12.62492160193851
GLOBALSTAR M040         
1 25622U 99004B   24361.06411608 -.00000053  00000+0  28473-3 0  9996
2 25622  51.9897 224.4998 0001679  50.4029 114.3469 12.61995526193398
GLOBALSTAR M036         
1 25623U 99004C   24361.28951896 -.00000007  00000+0  11087-2 0  9990
2 25623  51.9995 336.0385 0011138  81.2463  56.3031 11.86585237158451
GLOBALSTAR M038         
1 25624U 99004D   24361.13757015 -.00000038  00000+0  46912-3 0  9992
2 25624  51.9942 209.9326 0002976  64.0224  85.6562 12.32516774181037
GLOBALSTAR M022         
1 25649U 99012A   24361.26616781 -.00000038  00000+0  58474-3 0  9992
2 25649  52.0061  40.9781 0002582 181.1823 254.8363 12.02493781155573
GLOBALSTAR M041         
1 25650U 99012B   24361.23327519 -.00000014  00000+0  91708-3 0  9990
2 25650  52.0027 277.2488 0002500 357.2855   2.7967 11.96666026157575
GLOBALSTAR M046         
1 25651U 99012C   24361.29044440 -.00000099  00000+0 -11235-3 0  9997
2 25651  52.0075 357.3574 0002060 268.5958 193.0054 12.09403047162747
GLOBALSTAR M037         
1 25652U 99012D   24361.27276993 -.00000082  00000+0  11997-3 0  9992
2 25652  52.0024 350.6483 0001943 157.3854 309.6548 12.62429737189437
